{"type": "FeatureCollection", "features": [ {"type": "Feature", "properties": {"norad_id": 32363, "name": "FENGYUN 1C DEB", "group": "fengyun-1c-debris", "lat": -1.7628671346718552, "lon": -53.30181801004047, "alt_km": 457.52144350940034, "timestamp": "2025-12-14T05:42:18.746696+00:00", "meta": {"OBJECT_NAME": "FENGYUN 1C DEB", "OBJECT_ID": "1999-025CZG", "EPOCH": "2025-12-12T14:55:28.438752", "MEAN_MOTION": 15.47654377, "ECCENTRICITY": 0.00641405, "INCLINATION": 98.3312, "RA_OF_ASC_NODE": 304.5795, "ARG_OF_PERICENTER": 141.359, "MEAN_ANOMALY": 219.2273, "EPHEMERIS_TYPE": 0, "CLASSIFICATION_TYPE": "U", "NORAD_CAT_ID": 32363, "ELEMENT_SET_NO": 999, "REV_AT_EPOCH": 96806, "BSTAR": 0.0021790643, "MEAN_MOTION_DOT": 0.00123573, "MEAN_MOTION_DDOT": 0}, "tle": {"line1": "1 32363U 99025CZG 25346.62185693  .00123573  00000+0  21791-2 0  9994", "line2": "2 32363  98.3312 304.5795 0064140 141.3590 219.2273 15.47654377968060"}}, "geometry": {"type": "Point", "coordinates": [-53.30181801004047, -1.7628671346718552]}}, {"type": "Feature", "properties": {"norad_id": 32364, "name": "FENGYUN 1C DEB", "group": "fengyun-1c-debris", "lat": -46.80791893872036, "lon": -1.8587624711677246, "alt_km": 784.5038543154487, "timestamp": "2025-12-14T05:42:18.746716+00:00", "meta": {"OBJECT_NAME": "FENGYUN 1C DEB", "OBJECT_ID": "1999-025CZH", "EPOCH": "2025-11-29T08:05:37.624992", "MEAN_MOTION": 14.14317962, "ECCENTRICITY": 0.01349396, "INCLINATION": 98.2918, "RA_OF_ASC_NODE": 173.2369, "ARG_OF_PERICENTER": 222.8285, "MEAN_ANOMALY": 136.2316, "EPHEMERIS_TYPE": 0, "CLASSIFICATION_TYPE": "U", "NORAD_CAT_ID": 32364, "ELEMENT_SET_NO": 999, "REV_AT_EPOCH": 63519, "BSTAR": 0.0022712328, "MEAN_MOTION_DOT": 4.699e-05, "MEAN_MOTION_DDOT": 0}, "tle": {"line1": "1 32364U 99025CZH 25333.33724103  .00004699  00000+0  22712-2 0  9995", "line2": "2 32364  98.2918 173.2369 0134939 222.8285 136.2316 14.14317962635190"}}, "geometry": {"type": "Point", "coordinates": [-1.8587624711677246, -46.80791893872036]}}, {"type": "Feature", "properties": {"norad_id": 32366, "name": "FENGYUN 1C DEB", "group": "fengyun-1c-debris", "lat": -78.70504238155053, "lon": 146.77376963766145, "alt_km": 759.4221382460055, "timestamp": "2025-12-14T05:42:18.746728+00:00", "meta": {"OBJECT_NAME": "FENGYUN 1C DEB", "OBJECT_ID": "1999-025CZK", "EPOCH": "2025-12-12T15:01:00.327936", "MEAN_MOTION": 14.13833513, "ECCENTRICITY": 0.01358425, "INCLINATION": 96.775, "RA_OF_ASC_NODE": 109.0241, "ARG_OF_PERICENTER": 267.3383, "MEAN_ANOMALY": 91.224, "EPHEMERIS_TYPE": 0, "CLASSIFICATION_TYPE": "U", "NORAD_CAT_ID": 32366, "ELEMENT_SET_NO": 999, "REV_AT_EPOCH": 93202, "BSTAR": 0.002672075, "MEAN_MOTION_DOT": 5.501e-05, "MEAN_MOTION_DDOT": 0}, "tle": {"line1": "1 32366U 99025CZK 25346.62569824  .00005501  00000+0  26721-2 0  9997", "line2": "2 32366  96.7750 109.0241 0135842 267.3383  91.2240 14.13833513932024"}}, "geometry": {"type": "Point", "coordinates": [146.77376963766145, -78.70504238155053]}}, {"type": "Feature", "properties": {"norad_id": 32372, "name": "FENGYUN 1C DEB", "group": "fengyun-1c-debris", "lat": -39.38926223917241, "lon": -125.02056867726067, "alt_km": 1034.7663708739137, "timestamp": "2025-12-14T05:42:18.746738+00:00", "meta": {"OBJECT_NAME": "FENGYUN 1C DEB", "OBJECT_ID": "1999-025CZR", "EPOCH": "2025-12-11T11:21:44.110080", "MEAN_MOTION": 13.35367723, "ECCENTRICITY": 0.04586798, "INCLINATION": 97.3163, "RA_OF_ASC_NODE": 226.9338, "ARG_OF_PERICENTER": 43.4714, "MEAN_ANOMALY": 320.164, "EPHEMERIS_TYPE": 0, "CLASSIFICATION_TYPE": "U", "NORAD_CAT_ID": 32372, "ELEMENT_SET_NO": 999, "REV_AT_EPOCH": 60123, "BSTAR": 0.003543376, "MEAN_MOTION_DOT": 3.249e-05, "MEAN_MOTION_DDOT": 0}, "tle": {"line1": "1 32372U 99025CZR 25345.47342720  .00003249  00000+0  35434-2 0  9998", "line2": "2 32372  97.3163 226.9338 0458679  43.4714 320.1640 13.35367723601231"}}, "geometry": {"type": "Point", "coordinates": [-125.02056867726067, -39.38926223917241]}}, {"type": "Feature", "properties": {"norad_id": 32409, "name": "FENGYUN 1C DEB", "group": "fengyun-1c-debris", "lat": 40.63163689541837, "lon": 144.03662003095397, "alt_km": 645.6144133364178, "timestamp": "2025-12-14T05:42:18.746749+00:00", "meta": {"OBJECT_NAME": "FENGYUN 1C DEB", "OBJECT_ID": "1999-025CZV", "EPOCH": "2025-12-07T05:07:54.004800", "MEAN_MOTION": 14.7602828, "ECCENTRICITY": 0.00392582, "INCLINATION": 99.5677, "RA_OF_ASC_NODE": 144.053, "ARG_OF_PERICENTER": 169.8692, "MEAN_ANOMALY": 6.8268, "EPHEMERIS_TYPE": 0, "CLASSIFICATION_TYPE": "U", "NORAD_CAT_ID": 32409, "ELEMENT_SET_NO": 999, "REV_AT_EPOCH": 58757, "BSTAR": 0.00306852, "MEAN_MOTION_DOT": 0.00021404, "MEAN_MOTION_DDOT": 0}, "tle": {"line1": "1 32409U 99025CZV 25341.21381950  .00021404  00000+0  30685-2 0  9991", "line2": "2 32409  99.5677 144.0530 0039258 169.8692   6.8268 14.76028280587578"}}, "geometry": {"type": "Point", "coordinates": [144.03662003095397, 40.63163689541837]}}, {"type": "Feature", "properties": {"norad_id": 32411, "name": "FENGYUN 1C DEB", "group": "fengyun-1c-debris", "lat": 2.421614960721505, "lon": -94.25629594189802, "alt_km": 773.8913266817426, "timestamp": "2025-12-14T05:42:18.746759+00:00", "meta": {"OBJECT_NAME": "FENGYUN 1C DEB", "OBJECT_ID": "1999-025CZX", "EPOCH": "2025-12-13T00:44:16.660896", "MEAN_MOTION": 14.0980985, "ECCENTRICITY": 0.01242326, "INCLINATION": 98.4289, "RA_OF_ASC_NODE": 264.9721, "ARG_OF_PERICENTER": 15.6088, "MEAN_ANOMALY": 344.8861, "EPHEMERIS_TYPE": 0, "CLASSIFICATION_TYPE": "U", "NORAD_CAT_ID": 32411, "ELEMENT_SET_NO": 999, "REV_AT_EPOCH": 65818, "BSTAR": 0.00070866211, "MEAN_MOTION_DOT": 1.298e-05, "MEAN_MOTION_DDOT": 0}, "tle": {"line1": "1 32411U 99025CZX 25347.03074839  .00001298  00000+0  70866-3 0  9990", "line2": "2 32411  98.4289 264.9721 0124232  15.6088 344.8861 14.09809850658182"}}, "geometry": {"type": "Point", "coordinates": [-94.25629594189802, 2.421614960721505]}}, {"type": "Feature", "properties": {"norad_id": 32414, "name": "FENGYUN 1C DEB", "group": "fengyun-1c-debris", "lat": 30.84365600794813, "lon": -115.76404311934918, "alt_km": 858.1358574880569, "timestamp": "2025-12-14T05:42:18.746770+00:00", "meta": {"OBJECT_NAME": "FENGYUN 1C DEB", "OBJECT_ID": "1999-025DAA", "EPOCH": "2025-12-08T10:10:57.710784", "MEAN_MOTION": 14.18376108, "ECCENTRICITY": 0.00450145, "INCLINATION": 98.8578, "RA_OF_ASC_NODE": 53.0907, "ARG_OF_PERICENTER": 11.0611, "MEAN_ANOMALY": 349.1543, "EPHEMERIS_TYPE": 0, "CLASSIFICATION_TYPE": "U", "NORAD_CAT_ID": 32414, "ELEMENT_SET_NO": 999, "REV_AT_EPOCH": 93671, "BSTAR": 0.0020734301, "MEAN_MOTION_DOT": 4.277e-05, "MEAN_MOTION_DDOT": 0}, "tle": {"line1": "1 32414U 99025DAA 25342.42427906  .00004277  00000+0  20734-2 0  9996", "line2": "2 32414  98.8578  53.0907 0045014  11.0611 349.1543 14.18376108936713"}}, "geometry": {"type": "Point", "coordinates": [-115.76404311934918, 30.84365600794813]}}, {"type": "Feature", "properties": {"norad_id": 32419, "name": "FENGYUN 1C DEB", "group": "fengyun-1c-debris", "lat": -75.64309637005931, "lon": 70.26903440634048, "alt_km": 985.8131380720752, "timestamp": "2025-12-14T05:42:18.746780+00:00", "meta": {"OBJECT_NAME": "FENGYUN 1C DEB", "OBJECT_ID": "1999-025DAF", "EPOCH": "2025-12-11T15:09:56.013984", "MEAN_MOTION": 14.09908253, "ECCENTRICITY": 0.02839501, "INCLINATION": 97.9459, "RA_OF_ASC_NODE": 281.0334, "ARG_OF_PERICENTER": 32.1797, "MEAN_ANOMALY": 329.6358, "EPHEMERIS_TYPE": 0, "CLASSIFICATION_TYPE": "U", "NORAD_CAT_ID": 32419, "ELEMENT_SET_NO": 999, "REV_AT_EPOCH": 63555, "BSTAR": 0.0013854285, "MEAN_MOTION_DOT": 3.513e-05, "MEAN_MOTION_DDOT": 0}, "tle": {"line1": "1 32419U 99025DAF 25345.63189831  .00003513  00000+0  13854-2 0  9996", "line2": "2 32419  97.9459 281.0334 0283950  32.1797 329.6358 14.09908253635552"}}, "geometry": {"type": "Point", "coordinates": [70.26903440634048, -75.64309637005931]}}, {"type": "Feature", "properties": {"norad_id": 32422, "name": "FENGYUN 1C DEB", "group": "fengyun-1c-debris", "lat": 1.2941309416179194, "lon": 119.34689114248008, "alt_km": 833.917431918454, "timestamp": "2025-12-14T05:42:18.746790+00:00", "meta": {"OBJECT_NAME": "FENGYUN 1C DEB", "OBJECT_ID": "1999-025DAJ", "EPOCH": "2025-12-10T15:48:54.548352", "MEAN_MOTION": 13.98002768, "ECCENTRICITY": 0.0298224, "INCLINATION": 97.8401, "RA_OF_ASC_NODE": 116.4609, "ARG_OF_PERICENTER": 298.6669, "MEAN_ANOMALY": 58.4812, "EPHEMERIS_TYPE": 0, "CLASSIFICATION_TYPE": "U", "NORAD_CAT_ID": 32422, "ELEMENT_SET_NO": 999, "REV_AT_EPOCH": 63104, "BSTAR": 0.00051946, "MEAN_MOTION_DOT": 1.039e-05, "MEAN_MOTION_DDOT": 0}, "tle": {"line1": "1 32422U 99025DAJ 25344.65896468  .00001039  00000+0  51946-3 0  9998", "line2": "2 32422  97.8401 116.4609 0298224 298.6669  58.4812 13.98002768631040"}}, "geometry": {"type": "Point", "coordinates": [119.34689114248008, 1.2941309416179194]}}, {"type": "Feature", "properties": {"norad_id": 32425, "name": "FENGYUN 1C DEB", "group": "fengyun-1c-debris", "lat": 41.276868256032195, "lon": 130.2874384811789, "alt_km": 877.7256414296362, "timestamp": "2025-12-14T05:42:18.746801+00:00", "meta": {"OBJECT_NAME": "FENGYUN 1C DEB", "OBJECT_ID": "1999-025DAM", "EPOCH": "2025-12-12T16:13:12.115488", "MEAN_MOTION": 14.16741504, "ECCENTRICITY": 0.02316015, "INCLINATION": 96.7012, "RA_OF_ASC_NODE": 135.0318, "ARG_OF_PERICENTER": 299.6477, "MEAN_ANOMALY": 58.1818, "EPHEMERIS_TYPE": 0, "CLASSIFICATION_TYPE": "U", "NORAD_CAT_ID": 32425, "ELEMENT_SET_NO": 999, "REV_AT_EPOCH": 69534, "BSTAR": 0.00075748036, "MEAN_MOTION_DOT": 1.938e-05, "MEAN_MOTION_DDOT": 0}, "tle": {"line1": "1 32425U 99025DAM 25346.67583467  .00001938  00000+0  75748-3 0  9991", "line2": "2 32425  96.7012 135.0318 0231601 299.6477  58.1818 14.16741504695342"}}, "geometry": {"type": "Point", "coordinates": [130.2874384811789, 41.276868256032195]}}]}